STARLINK-5833           
1 55773U 23028AJ  26068.70689438  .00000549  00000+0  53827-4 0  9995
2 55773  70.0002 224.4904 0003046 270.7913  89.2897 14.98333799166535
SHIYAN-24C 03           
1 58652U 23206C   26068.89147317  .00001350  00000+0  11928-3 0  9993
2 58652  97.3969  41.7507 0002411  66.6237 293.5240 14.97896938120432
